[
  {
    "OBJECT_NAME": "STARLINK-2429",
    "OBJECT_ID": "2021-018BD",
    "EPOCH": "2025-05-31T12:44:46.730688",
    "MEAN_MOTION": 15.06404563,
    "ECCENTRICITY": 0.000146,
    "INCLINATION": 53.0548,
    "RA_OF_ASC_NODE": 78.2771,
    "ARG_OF_PERICENTER": 96.6263,
    "MEAN_ANOMALY": 263.4892,
    "EPHEMERIS_TYPE": 0,
    "CLASSIFICATION_TYPE": "U",
    "NORAD_CAT_ID": 47838,
    "ELEMENT_SET_NO": 999,
    "REV_AT_EPOCH": 23406,
    "BSTAR": 0.00010655,
    "MEAN_MOTION_DOT": 1.306e-05,
    "MEAN_MOTION_DDOT": 0
  },
  {
    "OBJECT_NAME": "STARLINK-2431",
    "OBJECT_ID": "2021-018BE",
    "EPOCH": "2025-05-31T10:14:49.214400",
    "MEAN_MOTION": 15.06397637,
    "ECCENTRICITY": 0.0002041,
    "INCLINATION": 53.057,
    "RA_OF_ASC_NODE": 48.7414,
    "ARG_OF_PERICENTER": 88.3312,
    "MEAN_ANOMALY": 271.7911,
    "EPHEMERIS_TYPE": 0,
    "CLASSIFICATION_TYPE": "U",
    "NORAD_CAT_ID": 47839,
    "ELEMENT_SET_NO": 999,
    "REV_AT_EPOCH": 23448,
    "BSTAR": 1.1409e-05,
    "MEAN_MOTION_DOT": -1.12e-06,
    "MEAN_MOTION_DDOT": 0
  },
  {
    "OBJECT_NAME": "STARLINK-2432",
    "OBJECT_ID": "2021-018BF",
    "EPOCH": "2025-05-31T10:29:24.862848",
    "MEAN_MOTION": 15.06399691,
    "ECCENTRICITY": 0.0001559,
    "INCLINATION": 53.0551,
    "RA_OF_ASC_NODE": 58.6916,
    "ARG_OF_PERICENTER": 80.1754,
    "MEAN_ANOMALY": 279.941,
    "EPHEMERIS_TYPE": 0,
    "CLASSIFICATION_TYPE": "U",
    "NORAD_CAT_ID": 47840,
    "ELEMENT_SET_NO": 999,
    "REV_AT_EPOCH": 23433,
    "BSTAR": 0.00012458,
    "MEAN_MOTION_DOT": 1.575e-05,
    "MEAN_MOTION_DDOT": 0
  },
  {
    "OBJECT_NAME": "STARLINK-2433",
    "OBJECT_ID": "2021-018BG",
    "EPOCH": "2025-05-31T10:24:06.304320",
    "MEAN_MOTION": 15.06398417,
    "ECCENTRICITY": 0.0001589,
    "INCLINATION": 53.0554,
    "RA_OF_ASC_NODE": 58.7096,
    "ARG_OF_PERICENTER": 92.6145,
    "MEAN_ANOMALY": 267.5026,
    "EPHEMERIS_TYPE": 0,
    "CLASSIFICATION_TYPE": "U",
    "NORAD_CAT_ID": 47841,
    "ELEMENT_SET_NO": 999,
    "REV_AT_EPOCH": 23433,
    "BSTAR": 4.4854e-05,
    "MEAN_MOTION_DOT": 3.87e-06,
    "MEAN_MOTION_DDOT": 0
  },
  {
    "OBJECT_NAME": "STARLINK-2435",
    "OBJECT_ID": "2021-018BJ",
    "EPOCH": "2025-05-31T04:38:25.616256",
    "MEAN_MOTION": 15.0641203,
    "ECCENTRICITY": 0.0001658,
    "INCLINATION": 53.0556,
    "RA_OF_ASC_NODE": 84.7915,
    "ARG_OF_PERICENTER": 95.102,
    "MEAN_ANOMALY": 265.0158,
    "EPHEMERIS_TYPE": 0,
    "CLASSIFICATION_TYPE": "U",
    "NORAD_CAT_ID": 47843,
    "ELEMENT_SET_NO": 999,
    "REV_AT_EPOCH": 23396,
    "BSTAR": 4.1975e-05,
    "MEAN_MOTION_DOT": 3.44e-06,
    "MEAN_MOTION_DDOT": 0
  },
  {
    "OBJECT_NAME": "STARLINK-2446",
    "OBJECT_ID": "2021-018BK",
    "EPOCH": "2025-05-31T12:34:08.847264",
    "MEAN_MOTION": 15.06398113,
    "ECCENTRICITY": 0.00015,
    "INCLINATION": 53.055,
    "RA_OF_ASC_NODE": 78.308,
    "ARG_OF_PERICENTER": 90.1385,
    "MEAN_ANOMALY": 269.9776,
    "EPHEMERIS_TYPE": 0,
    "CLASSIFICATION_TYPE": "U",
    "NORAD_CAT_ID": 47844,
    "ELEMENT_SET_NO": 999,
    "REV_AT_EPOCH": 23406,
    "BSTAR": -3.3474e-05,
    "MEAN_MOTION_DOT": -7.8e-06,
    "MEAN_MOTION_DDOT": 0
  },
  {
    "OBJECT_NAME": "STARLINK-2453",
    "OBJECT_ID": "2021-018BL",
    "EPOCH": "2025-05-31T05:02:59.894880",
    "MEAN_MOTION": 15.06387555,
    "ECCENTRICITY": 0.0001529,
    "INCLINATION": 53.0551,
    "RA_OF_ASC_NODE": 79.7158,
    "ARG_OF_PERICENTER": 98.325,
    "MEAN_ANOMALY": 261.7912,
    "EPHEMERIS_TYPE": 0,
    "CLASSIFICATION_TYPE": "U",
    "NORAD_CAT_ID": 47845,
    "ELEMENT_SET_NO": 999,
    "REV_AT_EPOCH": 23402,
    "BSTAR": -0.00013146,
    "MEAN_MOTION_DOT": -2.238e-05,
    "MEAN_MOTION_DDOT": 0
  },
  {
    "OBJECT_NAME": "STARLINK-2280",
    "OBJECT_ID": "2021-021B",
    "EPOCH": "2025-05-31T13:27:53.392896",
    "MEAN_MOTION": 15.06390403,
    "ECCENTRICITY": 0.0001304,
    "INCLINATION": 53.0551,
    "RA_OF_ASC_NODE": 93.1425,
    "ARG_OF_PERICENTER": 81.2125,
    "MEAN_ANOMALY": 278.9012,
    "EPHEMERIS_TYPE": 0,
    "CLASSIFICATION_TYPE": "U",
    "NORAD_CAT_ID": 47861,
    "ELEMENT_SET_NO": 999,
    "REV_AT_EPOCH": 23374,
    "BSTAR": -7.9459e-05,
    "MEAN_MOTION_DOT": -1.464e-05,
    "MEAN_MOTION_DDOT": 0
  },
  {
    "OBJECT_NAME": "STARLINK-2291",
    "OBJECT_ID": "2021-021C",
    "EPOCH": "2025-05-31T05:01:39.084960",
    "MEAN_MOTION": 15.06407948,
    "ECCENTRICITY": 0.0001462,
    "INCLINATION": 53.0548,
    "RA_OF_ASC_NODE": 89.7234,
    "ARG_OF_PERICENTER": 102.2614,
    "MEAN_ANOMALY": 257.8539,
    "EPHEMERIS_TYPE": 0,
    "CLASSIFICATION_TYPE": "U",
    "NORAD_CAT_ID": 47862,
    "ELEMENT_SET_NO": 999,
    "REV_AT_EPOCH": 23327,
    "BSTAR": 0.00011011,
    "MEAN_MOTION_DOT": 1.359e-05,
    "MEAN_MOTION_DDOT": 0
  },
  {
    "OBJECT_NAME": "STARLINK-2326",
    "OBJECT_ID": "2021-021L",
    "EPOCH": "2025-05-31T14:50:10.580064",
    "MEAN_MOTION": 15.06392951,
    "ECCENTRICITY": 0.0001429,
    "INCLINATION": 53.0548,
    "RA_OF_ASC_NODE": 112.8837,
    "ARG_OF_PERICENTER": 89.5797,
    "MEAN_ANOMALY": 270.5356,
    "EPHEMERIS_TYPE": 0,
    "CLASSIFICATION_TYPE": "U",
    "NORAD_CAT_ID": 47870,
    "ELEMENT_SET_NO": 999,
    "REV_AT_EPOCH": 23298,
    "BSTAR": 2.2757e-05,
    "MEAN_MOTION_DOT": 5.7e-07,
    "MEAN_MOTION_DDOT": 0
  },
  {
    "OBJECT_NAME": "STARLINK-2329",
    "OBJECT_ID": "2021-021P",
    "EPOCH": "2025-05-31T12:16:53.516064",
    "MEAN_MOTION": 15.0640197,
    "ECCENTRICITY": 0.0001473,
    "INCLINATION": 53.0544,
    "RA_OF_ASC_NODE": 88.3628,
    "ARG_OF_PERICENTER": 93.219,
    "MEAN_ANOMALY": 266.8967,
    "EPHEMERIS_TYPE": 0,
    "CLASSIFICATION_TYPE": "U",
    "NORAD_CAT_ID": 47873,
    "ELEMENT_SET_NO": 999,
    "REV_AT_EPOCH": 23379,
    "BSTAR": -2.8751e-06,
    "MEAN_MOTION_DOT": -3.24e-06,
    "MEAN_MOTION_DDOT": 0
  },
  {
    "OBJECT_NAME": "STARLINK-2330",
    "OBJECT_ID": "2021-021Q",
    "EPOCH": "2025-05-31T20:28:32.978208",
    "MEAN_MOTION": 15.06382941,
    "ECCENTRICITY": 0.0001858,
    "INCLINATION": 53.0566,
    "RA_OF_ASC_NODE": 41.8411,
    "ARG_OF_PERICENTER": 103.4167,
    "MEAN_ANOMALY": 256.7029,
    "EPHEMERIS_TYPE": 0,
    "CLASSIFICATION_TYPE": "U",
    "NORAD_CAT_ID": 47874,
    "ELEMENT_SET_NO": 999,
    "REV_AT_EPOCH": 23400,
    "BSTAR": 2.0237e-05,
    "MEAN_MOTION_DOT": 2e-07,
    "MEAN_MOTION_DDOT": 0
  },
  {
    "OBJECT_NAME": "STARLINK-2336",
    "OBJECT_ID": "2021-021V",
    "EPOCH": "2025-05-31T13:57:05.343840",
    "MEAN_MOTION": 15.06410948,
    "ECCENTRICITY": 0.0001508,
    "INCLINATION": 53.0535,
    "RA_OF_ASC_NODE": 113.0533,
    "ARG_OF_PERICENTER": 89.845,
    "MEAN_ANOMALY": 270.2711,
    "EPHEMERIS_TYPE": 0,
    "CLASSIFICATION_TYPE": "U",
    "NORAD_CAT_ID": 47879,
    "ELEMENT_SET_NO": 999,
    "REV_AT_EPOCH": 23298,
    "BSTAR": 7.8192e-05,
    "MEAN_MOTION_DOT": 8.84e-06,
    "MEAN_MOTION_DDOT": 0
  },
  {
    "OBJECT_NAME": "STARLINK-2340",
    "OBJECT_ID": "2021-021Y",
    "EPOCH": "2025-05-31T11:40:35.742720",
    "MEAN_MOTION": 15.39447239,
    "ECCENTRICITY": 0.0007049,
    "INCLINATION": 53.0508,
    "RA_OF_ASC_NODE": 66.1803,
    "ARG_OF_PERICENTER": 103.1962,
    "MEAN_ANOMALY": 256.9828,
    "EPHEMERIS_TYPE": 0,
    "CLASSIFICATION_TYPE": "U",
    "NORAD_CAT_ID": 47882,
    "ELEMENT_SET_NO": 999,
    "REV_AT_EPOCH": 23428,
    "BSTAR": 0.000919,
    "MEAN_MOTION_DOT": 0.00036354,
    "MEAN_MOTION_DDOT": 0
  }
]