STARLINK-2429           
1 47838U 21018BD  25151.53109642  .00001306  00000+0  10655-3 0  9995
2 47838  53.0548  78.2771 0001460  96.6263 263.4892 15.06404563234065
STARLINK-2431           
1 47839U 21018BE  25151.42695850 -.00000112  00000+0  11409-4 0  9999
2 47839  53.0570  48.7414 0002041  88.3312 271.7911 15.06397637234489
STARLINK-2432           
1 47840U 21018BF  25151.43709332  .00001575  00000+0  12458-3 0  9990
2 47840  53.0551  58.6916 0001559  80.1754 279.9410 15.06399691234330
STARLINK-2433           
1 47841U 21018BG  25151.43340630  .00000387  00000+0  44854-4 0  9999
2 47841  53.0554  58.7096 0001589  92.6145 267.5026 15.06398417234330
STARLINK-2435           
1 47843U 21018BJ  25151.19335204  .00000344  00000+0  41975-4 0  9999
2 47843  53.0556  84.7915 0001658  95.1020 265.0158 15.06412030233965
STARLINK-2446           
1 47844U 21018BK  25151.52371351 -.00000780  00000+0 -33474-4 0  9991
2 47844  53.0550  78.3080 0001500  90.1385 269.9776 15.06398113234063
STARLINK-2453           
1 47845U 21018BL  25151.21041545 -.00002238  00000+0 -13146-3 0  9990
2 47845  53.0551  79.7158 0001529  98.3250 261.7912 15.06387555234024
STARLINK-2280           
1 47861U 21021B   25151.56103464 -.00001464  00000+0 -79459-4 0  9999
2 47861  53.0551  93.1425 0001304  81.2125 278.9012 15.06390403233747
STARLINK-2291           
1 47862U 21021C   25151.20948015  .00001359  00000+0  11011-3 0  9990
2 47862  53.0548  89.7234 0001462 102.2614 257.8539 15.06407948233276
STARLINK-2326           
1 47870U 21021L   25151.61817801  .00000057  00000+0  22757-4 0  9996
2 47870  53.0548 112.8837 0001429  89.5797 270.5356 15.06392951232987
STARLINK-2329           
1 47873U 21021P   25151.51173051 -.00000324  00000+0 -28751-5 0  9990
2 47873  53.0544  88.3628 0001473  93.2190 266.8967 15.06401970233797
STARLINK-2330           
1 47874U 21021Q   25151.85315947  .00000020  00000+0  20237-4 0  9991
2 47874  53.0566  41.8411 0001858 103.4167 256.7029 15.06382941234009
STARLINK-2336           
1 47879U 21021V   25151.58131185  .00000884  00000+0  78192-4 0  9997
2 47879  53.0535 113.0533 0001508  89.8450 270.2711 15.06410948232984
STARLINK-2340           
1 47882U 21021Y   25151.48652480  .00036354  00000+0  91900-3 0  9998
2 47882  53.0508  66.1803 0007049 103.1962 256.9828 15.39447239234284
